{
  "type": "FeatureCollection",
  "features": [
    {
      "type": "Feature",
      "properties": {
        "norad_id": 67067,
        "name": "HULIANWANG DIGUI-127",
        "group": "last-30-days",
        "lat": -22.77142311403113,
        "lon": -47.30711102683554,
        "alt_km": 801.5552347886269,
        "timestamp": "2025-12-21T22:41:40.168322+00:00",
        "meta_object_name": "HULIANWANG DIGUI-127",
        "meta_object_id": "2025-295J",
        "meta_epoch": "2025-12-21T12:44:47.878944",
        "meta_mean_motion": 14.2625082,
        "meta_eccentricity": 0.00108653,
        "meta_inclination": 50.0053,
        "meta_ra_of_asc_node": 335.0789,
        "meta_arg_of_pericenter": 285.2015,
        "meta_mean_anomaly": 74.7697,
        "meta_ephemeris_type": 0,
        "meta_classification_type": "U",
        "meta_norad_cat_id": 67067,
        "meta_element_set_no": 999,
        "meta_rev_at_epoch": 137,
        "meta_bstar": -0.00027571791,
        "meta_mean_motion_dot": -8.26e-06,
        "meta_mean_motion_ddot": 0,
        "tle_line1": "1 67067U 25295J   25355.53110971 -.00000826  00000+0 -27572-3 0  9999",
        "tle_line2": "2 67067  50.0053 335.0789 0010865 285.2015  74.7697 14.26250820  1370"
      },
      "geometry": {
        "type": "Point",
        "coordinates": [
          -47.30711102683554,
          -22.77142311403113
        ]
      }
    },
    {
      "type": "Feature",
      "properties": {
        "norad_id": 67068,
        "name": "CZ-12 R/B",
        "group": "last-30-days",
        "lat": 28.738794626101352,
        "lon": 124.9236302559513,
        "alt_km": 715.0805244846051,
        "timestamp": "2025-12-21T22:41:40.168332+00:00",
        "meta_object_name": "CZ-12 R/B",
        "meta_object_id": "2025-295K",
        "meta_epoch": "2025-12-21T10:23:33.839520",
        "meta_mean_motion": 14.41128985,
        "meta_eccentricity": 0.00568766,
        "meta_inclination": 49.9943,
        "meta_ra_of_asc_node": 334.5653,
        "meta_arg_of_pericenter": 167.0593,
        "meta_mean_anomaly": 193.1802,
        "meta_ephemeris_type": 0,
        "meta_classification_type": "U",
        "meta_norad_cat_id": 67068,
        "meta_element_set_no": 999,
        "meta_rev_at_epoch": 136,
        "meta_bstar": 6.275251e-06,
        "meta_mean_motion_dot": -1.48e-06,
        "meta_mean_motion_ddot": 0,
        "tle_line1": "1 67068U 25295K   25355.43303055 -.00000148  00000+0  62753-5 0  9994",
        "tle_line2": "2 67068  49.9943 334.5653 0056876 167.0593 193.1802 14.41128985  1366"
      },
      "geometry": {
        "type": "Point",
        "coordinates": [
          124.9236302559513,
          28.738794626101352
        ]
      }
    },
    {
      "type": "Feature",
      "properties": {
        "norad_id": 67069,
        "name": "XIWANG-5 02",
        "group": "last-30-days",
        "lat": 25.810606342475175,
        "lon": -164.29703837472096,
        "alt_km": 504.3538091184837,
        "timestamp": "2025-12-21T22:41:40.168342+00:00",
        "meta_object_name": "XIWANG-5 02",
        "meta_object_id": "2025-296A",
        "meta_epoch": "2025-12-21T12:36:21.226752",
        "meta_mean_motion": 15.16841551,
        "meta_eccentricity": 0.00144933,
        "meta_inclination": 41.3525,
        "meta_ra_of_asc_node": 51.4607,
        "meta_arg_of_pericenter": 88.2506,
        "meta_mean_anomaly": 271.9975,
        "meta_ephemeris_type": 0,
        "meta_classification_type": "U",
        "meta_norad_cat_id": 67069,
        "meta_element_set_no": 999,
        "meta_rev_at_epoch": 129,
        "meta_bstar": 0.00048912548,
        "meta_mean_motion_dot": 9.641e-05,
        "meta_mean_motion_ddot": 0,
        "tle_line1": "1 67069U 25296A   25355.52524568  .00009641  00000+0  48913-3 0  9996",
        "tle_line2": "2 67069  41.3525  51.4607 0014493  88.2506 271.9975 15.16841551  1292"
      },
      "geometry": {
        "type": "Point",
        "coordinates": [
          -164.29703837472096,
          25.810606342475175
        ]
      }
    },
    {
      "type": "Feature",
      "properties": {
        "norad_id": 67070,
        "name": "DEAR-5",
        "group": "last-30-days",
        "lat": 23.187959447682008,
        "lon": -160.08825456446817,
        "alt_km": 504.36610848305554,
        "timestamp": "2025-12-21T22:41:40.168354+00:00",
        "meta_object_name": "DEAR-5",
        "meta_object_id": "2025-296B",
        "meta_epoch": "2025-12-21T14:09:58.221216",
        "meta_mean_motion": 15.16889737,
        "meta_eccentricity": 0.0016094,
        "meta_inclination": 41.3552,
        "meta_ra_of_asc_node": 51.0811,
        "meta_arg_of_pericenter": 90.1416,
        "meta_mean_anomaly": 270.125,
        "meta_ephemeris_type": 0,
        "meta_classification_type": "U",
        "meta_norad_cat_id": 67070,
        "meta_element_set_no": 999,
        "meta_rev_at_epoch": 129,
        "meta_bstar": 0.0002009954,
        "meta_mean_motion_dot": 3.844e-05,
        "meta_mean_motion_ddot": 0,
        "tle_line1": "1 67070U 25296B   25355.59025719  .00003844  00000+0  20100-3 0  9996",
        "tle_line2": "2 67070  41.3552  51.0811 0016094  90.1416 270.1250 15.16889737  1293"
      },
      "geometry": {
        "type": "Point",
        "coordinates": [
          -160.08825456446817,
          23.187959447682008
        ]
      }
    },
    {
      "type": "Feature",
      "properties": {
        "norad_id": 67071,
        "name": "KZ-11 R/B",
        "group": "last-30-days",
        "lat": -4.277281847833289,
        "lon": 46.586949442656824,
        "alt_km": 158.00883525960126,
        "timestamp": "2025-12-21T22:41:40.168365+00:00",
        "meta_object_name": "KZ-11 R/B",
        "meta_object_id": "2025-296C",
        "meta_epoch": "2025-12-21T14:52:21.061344",
        "meta_mean_motion": 15.25020376,
        "meta_eccentricity": 0.0523493,
        "meta_inclination": 41.3166,
        "meta_ra_of_asc_node": 53.3722,
        "meta_arg_of_pericenter": 15.5777,
        "meta_mean_anomaly": 346.0497,
        "meta_ephemeris_type": 0,
        "meta_classification_type": "U",
        "meta_norad_cat_id": 67071,
        "meta_element_set_no": 999,
        "meta_rev_at_epoch": 127,
        "meta_bstar": 0.00048108,
        "meta_mean_motion_dot": 0.06983354,
        "meta_mean_motion_ddot": 6.8406e-06,
        "tle_line1": "1 67071U 25296C   25355.61968821  .06983354  68406-5  48108-3 0  9997",
        "tle_line2": "2 67071  41.3166  53.3722 0523493  15.5777 346.0497 15.25020376  1278"
      },
      "geometry": {
        "type": "Point",
        "coordinates": [
          46.586949442656824,
          -4.277281847833289
        ]
      }
    },
    {
      "type": "Feature",
      "properties": {
        "norad_id": 67072,
        "name": "ELECTRON R/B",
        "group": "last-30-days",
        "lat": 81.43024041941993,
        "lon": 24.58321960909111,
        "alt_km": 278.25965931009523,
        "timestamp": "2025-12-21T22:41:40.168377+00:00",
        "meta_object_name": "ELECTRON R/B",
        "meta_object_id": "2025-297A",
        "meta_epoch": "2025-12-21T19:17:58.153056",
        "meta_mean_motion": 16.03435832,
        "meta_eccentricity": 0.0148161,
        "meta_inclination": 97.4607,
        "meta_ra_of_asc_node": 144.0064,
        "meta_arg_of_pericenter": 199.9064,
        "meta_mean_anomaly": 159.64,
        "meta_ephemeris_type": 0,
        "meta_classification_type": "U",
        "meta_norad_cat_id": 67072,
        "meta_element_set_no": 999,
        "meta_rev_at_epoch": 122,
        "meta_bstar": 0.001434,
        "meta_mean_motion_dot": 0.03840699,
        "meta_mean_motion_ddot": 2.1683e-06,
        "tle_line1": "1 67072U 25297A   25355.80414529  .03840699  21683-5  14340-2 0  9998",
        "tle_line2": "2 67072  97.4607 144.0064 0148161 199.9064 159.6400 16.03435832  1220"
      },
      "geometry": {
        "type": "Point",
        "coordinates": [
          24.58321960909111,
          81.43024041941993
        ]
      }
    },
    {
      "type": "Feature",
      "properties": {
        "norad_id": 67073,
        "name": "RAISE-4",
        "group": "last-30-days",
        "lat": 78.95262876444932,
        "lon": 5.581457962091569,
        "alt_km": 545.2502714985167,
        "timestamp": "2025-12-21T22:41:40.168389+00:00",
        "meta_object_name": "RAISE-4",
        "meta_object_id": "2025-297B",
        "meta_epoch": "2025-12-21T09:30:47.940480",
        "meta_mean_motion": 15.07192134,
        "meta_eccentricity": 0.00114098,
        "meta_inclination": 97.4855,
        "meta_ra_of_asc_node": 142.7124,
        "meta_arg_of_pericenter": 288.7486,
        "meta_mean_anomaly": 71.2503,
        "meta_ephemeris_type": 0,
        "meta_classification_type": "U",
        "meta_norad_cat_id": 67073,
        "meta_element_set_no": 999,
        "meta_rev_at_epoch": 109,
        "meta_bstar": 0.00021859428,
        "meta_mean_motion_dot": 3.233e-05,
        "meta_mean_motion_ddot": 0,
        "tle_line1": "1 67073U 25297B   25355.39638820  .00003233  00000+0  21859-3 0  9995",
        "tle_line2": "2 67073  97.4855 142.7124 0011409 288.7486  71.2503 15.07192134  1093"
      },
      "geometry": {
        "type": "Point",
        "coordinates": [
          5.581457962091569,
          78.95262876444932
        ]
      }
    }
  ]
}